HST                     
1 20580U 90037B   26204.25693192  .00005734  00000+0  17776-3 0  9994
2 20580  28.4721 193.9755 0001928 181.0239 179.0353 15.31122099794106
POLAR                   
1 23802U 96013A   26203.46798407  .00000205  00000+0  00000+0 0  9997
2 23802  79.9029 226.6327 6505799 207.8657  92.2145  1.29845994145315
SWAS                    
1 25560U 98071A   26204.25822602  .00003559  00000+0  22617-3 0  9996
2 25560  69.8955 134.4871 0007303 220.7958 139.2660 15.09787045502714
CXO                     
1 25867U 99040B   26206.40147406  .00000689  00000+0  00000+0 0  9993
2 25867  56.6765 115.6641 7773461 309.9148   0.5404  0.37796798 17465
XMM-NEWTON              
1 25989U 99066A   26205.24911900  .00000048  00000+0  00000+0 0  9994
2 25989  64.2866 282.5076 4663790  64.2318   0.0628  0.50127611 23189
TERRA                   
1 25994U 99068A   26204.60548284  .00000313  00000+0  72618-4 0  9996
2 25994  97.9436 252.7039 0003658 106.2542  53.1960 14.61128532414926
CLUSTER II-FM7 (SAMBA)  
1 26410U 00041A   26201.60182196  .00010308 -30415-5  00000+0 0  9992
2 26410 149.8020  56.9135 9091714 274.4939 359.4480  0.44850593 20460
CLUSTER II-FM8 (TANGO)  
1 26464U 00045B   26204.45555065  .00018617 -85750-5  00000+0 0  9993
2 26464 149.9706  58.6134 9097692 276.0928   2.0465  0.44435751 20476
ODIN                    
1 26702U 01007A   26204.10016903  .00656630  18429-3  16549-2 0  9999
2 26702  97.3683 247.7807 0005055 166.7093 193.4318 15.95596686395081
TIMED                   
1 26998U 01055B   26204.33675751  .00001070  00000+0  10057-3 0  9999
2 26998  74.0675 162.2283 0002391 291.5733  68.5197 14.95357975336221
CORIOLIS                
1 27640U 03001A   26204.27517605  .00000097  00000+0  66273-4 0  9993
2 27640  98.7140 210.6106 0015162 107.5660 252.7174 14.19953572219349
SORCE                   
1 27651U 03004A   26204.59861095  .00002394  00000+0  18108-3 0  9993
2 27651  39.9919  53.9065 0018494 310.9138  49.0054 15.03874992277389
MOST                    
1 27843U 03031D   26204.46554656  .00000055  00000+0  45001-4 0  9999
2 27843  98.7056 211.6865 0010536 142.3840 217.8076 14.21328966195869
SCISAT 1                
1 27858U 03036A   26204.15093088  .00000524  00000+0  71491-4 0  9996
2 27858  73.9301  99.8879 0006952 165.8729 194.2643 14.81485730236770
SWIFT                   
1 28485U 04047A   26204.33671625  .00063436  00000+0  45400-3 0  9996
2 28485  20.5517 265.3047 0002647 113.2022 246.8704 15.71929867192554
HINODE (SOLAR-B)        
1 29479U 06041A   26204.02222696  .00000547  00000+0  10227-3 0  9995
2 29479  98.0548 219.6469 0017684 169.5910 190.5665 14.68665420 60135
SHIJIAN-6 02A (SJ-6 02A)
1 29505U 06046A   26204.56483172  .00009101  00000+0  45954-3 0  9997
2 29505  97.6350 245.9093 0003783  46.0475 314.1070 15.17322418 77781
SHIJIAN-6 02B (SJ-6 02B)
1 29506U 06046B   26204.60131924  .00001064  00000+0  86989-4 0  9992
2 29506  97.7145 233.4336 0012442 305.5461  54.4603 15.01448778 76200
FGRST (GLAST)           
1 33053U 08029A   26204.56704334  .00003135  00000+0  11182-3 0  9996
2 33053  25.5832 311.8479 0008386  39.3312 320.7835 15.24110708  1244
SDO                     
1 36395U 10005A   26204.18438020 -.00000101  00000+0  00000+0 0  9993
2 36395  34.7238  85.7942 0001577  45.7486 133.6301  1.00277674 60427
CRYOSAT 2               
1 36508U 10013A   26204.54028592  .00000058  00000+0  13656-4 0  9993
2 36508  92.0353 286.1391 0002525  98.7028 261.4465 14.51899955863353
X-SAT                   
1 37389U 11015C   26204.59179547  .00000072  00000+0  47995-4 0  9995
2 37389  98.3539 179.8857 0012860 233.5900 126.4095 14.25215484792868
GCOM-W1 (SHIZUKU)       
1 38337U 12025A   26204.58700433  .00000362  00000+0  90326-4 0  9992
2 38337  98.2025 144.5921 0001253  80.5370  96.6169 14.57095571754335
NUSTAR                  
1 38358U 12031A   26204.66668981  .00008070  00000+0  44052-3 0  9990
2 38358   6.0259 120.4307 0009173 289.9097 146.9970 15.09103466  1307
NEOSSAT                 
1 39089U 13009D   26204.44637549  .00000131  00000+0  60109-4 0  9992
2 39089  98.4196  23.6202 0011881 134.2283 225.9880 14.35837721701941
BRITE-AUSTRIA           
1 39091U 13009F   26204.42694107  .00000152  00000+0  66177-4 0  9990
2 39091  98.4015  22.9694 0011163 128.0957 232.1238 14.36554972702250
IRIS                    
1 39197U 13033A   26204.52828597  .00000922  00000+0  11158-3 0  9990
2 39197  97.9318  43.6906 0023925 196.8386 163.2038 14.85949309705779
HISAKI (SPRINT-A)       
1 39253U 13049A   26203.99535622  .00000092  00000+0  36531-4 0  9995
2 39253  29.7218  37.9571 0136938 307.0762  51.7360 13.55547201636280
CASSIOPE                
1 39265U 13055A   26204.53663247  .00020243 -46619-6  21696-3 0  9990
2 39265  80.9135  22.4706 0281400 299.5475  57.7972 15.27720645673215
STSAT-3                 
1 39422U 13066G   26204.59974939  .00003364  00000+0  25483-3 0  9995
2 39422  97.6220 173.9011 0008717 271.2161  88.8065 15.02929661689675
